ONEWEB-0645             
1 55809U 23029P   24244.94228552  .00000049  00000+0  90942-4 0  9996
2 55809  87.9094  75.1285 0001283  99.3718 260.7560 13.19724267 72619
ONEWEB-0646             
1 55810U 23029Q   24244.82065827  .00000096  00000+0  20638-3 0  9995
2 55810  87.9089  75.1510 0001756  97.4918 262.6414 13.19725574 72589
ONEWEB-0648             
1 55811U 23029R   24244.72778286  .00000136  00000+0  33257-3 0  9991
2 55811  87.8927  59.8637 0001236 130.4496 229.6741 13.14503785 73413
ONEWEB-0649             
1 55812U 23029S   24244.93517212 -.00000408  00000+0 -10514-2 0  9999
2 55812  87.9087  75.1224 0001439 106.2062 253.9229 13.19726846 72634
ONEWEB-0650             
1 55813U 23029T   24244.93042006  .00000126  00000+0  28211-3 0  9993
2 55813  87.9093  75.1272 0001777  99.1699 260.9635 13.19727774 72603
ONEWEB-0652             
1 55814U 23029U   24244.93712961  .00000236  00000+0  60222-3 0  9998
2 55814  87.8928  59.8332 0001799  87.4020 272.7315 13.14504138 73416
ONEWEB-0653             
1 55815U 23029V   24244.92124800 -.00000290  00000+0 -81612-3 0  9995
2 55815  87.8931  59.8181 0001570  80.9787 279.1520 13.14501842 73449
ONEWEB-0654             
1 55816U 23029W   24244.91649223 -.00000160  00000+0 -46559-3 0  9993
2 55816  87.8930  59.8275 0001957  77.4263 282.7086 13.14500273 73468
